NORAD_CAT_ID,OBJECT_NAME,OBJECT_TYPE,EPOCH,MEAN_MOTION,ECCENTRICITY,INCLINATION,RA_OF_ASC_NODE,ARG_OF_PERICENTER,MEAN_ANOMALY,BSTAR,MEAN_MOTION_DOT,MEAN_MOTION_DDOT,TLE_LINE0,TLE_LINE1,TLE_LINE2,SEMIMAJOR_AXIS,PERIOD,APOGEE,PERIGEE,DECAYED
53887.0,STARLINK-5029,PAYLOAD,2023-05-07 04:13:05,15.08837092,8.61e-05,53.2168,301.8123,72.6715,287.4371,1.4332e-05,-6e-07,0.0,0 STARLINK-5029,1 53887U 22119B   23127.17575610 -.00000060  00000-0  14332-4 0  9997,2 53887  53.2168 301.8123 0000861  72.6715 287.4371 15.08837092 34630,6917.889,95.438,540.35,539.159,0.0
53887.0,STARLINK-5029,PAYLOAD,2023-05-07 18:31:34,15.08832405,7.32e-05,53.2153,299.1404,96.1673,263.9403,1.5237e-05,-4.5e-07,0.0,0 STARLINK-5029,1 53887U 22119B   23127.77192167 -.00000045  00000-0  15237-4 0  9993,2 53887  53.2153 299.1404 0000732  96.1673 263.9403 15.08832405 35141,6917.904,95.438,540.275,539.262,0.0
53887.0,STARLINK-5029,PAYLOAD,2023-05-08 10:25:25,15.08834908,8.5e-05,53.2153,296.1667,94.2256,265.8833,-3.343e-05,-8.2e-06,0.0,0 STARLINK-5029,1 53887U 22119B   23128.43432429 -.00000820  00000-0 -33430-4 0  9992,2 53887  53.2153 296.1667 0000850  94.2256 265.8833 15.08834908 34828,6917.896,95.438,540.349,539.173,0.0
53887.0,STARLINK-5029,PAYLOAD,2023-05-08 18:22:20,15.08842476,0.0001223,53.2155,294.6802,102.8638,257.249,8.0064e-06,-1.6e-06,0.0,0 STARLINK-5029,1 53887U 22119B   23128.76551866 -.00000160  00000-0  80064-5 0  9997,2 53887  53.2155 294.6802 0001223 102.8638 257.2490 15.08842476 34877,6917.873,95.437,540.584,538.892,0.0
53887.0,STARLINK-5029,PAYLOAD,2023-05-10 03:45:26,15.08838591,7.5e-05,53.2163,288.4345,82.9224,277.1853,2.9007e-05,1.74e-06,0.0,0 STARLINK-5029,1 53887U 22119B   23130.15656246  .00000174  00000-0  29007-4 0  9994,2 53887  53.2163 288.4345 0000750  82.9224 277.1853 15.08838591 35500,6917.885,95.438,540.269,539.231,0.0
53887.0,STARLINK-5029,PAYLOAD,2023-05-10 18:03:55,15.08839333,8.8e-05,53.2166,285.7578,78.2733,281.8358,2.0121e-05,3.3e-07,0.0,0 STARLINK-5029,1 53887U 22119B   23130.75272328  .00000033  00000-0  20121-4 0  9997,2 53887  53.2166 285.7578 0000880  78.2733 281.8358 15.08839333 35594,6917.882,95.438,540.356,539.139,0.0
53887.0,STARLINK-5029,PAYLOAD,2023-05-11 03:36:13,15.08844779,8.67e-05,53.2167,283.974,81.1496,278.9594,-1.5472e-05,-5.34e-06,0.0,0 STARLINK-5029,1 53887U 22119B   23131.15016004 -.00000534  00000-0 -15472-4 0  9990,2 53887  53.2167 283.9740 0000867  81.1496 278.9594 15.08844779 35230,6917.866,95.437,540.331,539.131,0.0
53887.0,STARLINK-5029,PAYLOAD,2023-05-11 16:19:19,15.08841196,8.63e-05,53.2171,281.5948,71.7464,288.3622,1.2034e-05,-9.6e-07,0.0,0 STARLINK-5029,1 53887U 22119B   23131.68008214 -.00000096  00000-0  12034-4 0  9995,2 53887  53.2171 281.5948 0000863  71.7464 288.3622 15.08841196 35737,6917.877,95.437,540.339,539.145,0.0
53887.0,STARLINK-5029,PAYLOAD,2023-05-12 03:27:00,15.08841324,8.89e-05,53.2163,279.5126,80.2475,279.8617,4.6211e-05,4.48e-06,0.0,0 STARLINK-5029,1 53887U 22119B   23132.14376020  .00000448  00000-0  46211-4 0  9994,2 53887  53.2163 279.5126 0000889  80.2475 279.8617 15.08841324 35808,6917.876,95.437,540.356,539.126,0.0
53887.0,STARLINK-5029,PAYLOAD,2023-05-12 16:10:07,15.08815524,8.81e-05,53.2162,277.1341,85.5873,274.522,0.0002607,3.861e-05,0.0,0 STARLINK-5029,1 53887U 22119B   23132.67369219  .00003861  00000-0  26070-3 0  9996,2 53887  53.2162 277.1341 0000881  85.5873 274.5220 15.08815524 35469,6917.955,95.439,540.43,539.211,0.0
53887.0,STARLINK-5029,PAYLOAD,2023-05-13 12:50:07,15.08839143,9.71e-05,53.2172,273.2662,90.9402,269.1702,8.4928e-06,-1.53e-06,0.0,0 STARLINK-5029,1 53887U 22119B   23133.53480348 -.00000153  00000-0  84928-5 0  9999,2 53887  53.2172 273.2662 0000971  90.9402 269.1702 15.08839143 36011,6917.883,95.438,540.42,539.076,0.0
53887.0,STARLINK-5029,PAYLOAD,2023-05-13 16:00:52,15.08841758,8.06e-05,53.2172,272.6712,94.7731,265.3354,5.4222e-05,5.75e-06,0.0,0 STARLINK-5029,1 53887U 22119B   23133.66727961  .00000575  00000-0  54222-4 0  9998,2 53887  53.2172 272.6712 0000806  94.7731 265.3354 15.08841758 35615,6917.875,95.437,540.298,539.182,0.0
53887.0,STARLINK-5029,PAYLOAD,2023-05-14 14:16:17,15.08834041,9.71e-05,53.2178,268.5089,78.8284,281.2817,1.3741e-05,-6.9e-07,0.0,0 STARLINK-5029,1 53887U 22119B   23134.59464875 -.00000069  00000-0  13741-4 0  9993,2 53887  53.2178 268.5089 0000971  78.8284 281.2817 15.08834041 36171,6917.899,95.438,540.435,539.092,0.0
53887.0,STARLINK-5029,PAYLOAD,2023-05-14 15:51:40,15.08837661,0.0001042,53.217,268.2124,100.0477,260.0633,-2.7998e-06,-3.32e-06,0.0,0 STARLINK-5029,1 53887U 22119B   23134.66088675 -.00000332  00000-0 -27998-5 0  9995,2 53887  53.2170 268.2124 0001042 100.0477 260.0633 15.08837661 35768,6917.888,95.438,540.473,539.032,0.0
53887.0,STARLINK-5029,PAYLOAD,2023-05-15 12:31:41,15.08837186,9.07e-05,53.2161,264.3462,92.6287,267.4809,-5.0133e-05,-1.085e-05,0.0,0 STARLINK-5029,1 53887U 22119B   23135.52201155 -.00001085  00000-0 -50133-4 0  9993,2 53887  53.2161 264.3462 0000907  92.6287 267.4809 15.08837186 36314,6917.889,95.438,540.381,539.127,0.0
53887.0,STARLINK-5029,PAYLOAD,2023-05-15 15:42:27,15.08839558,9.17e-05,53.2164,263.7544,101.2934,258.8161,-2.6144e-05,-7.04e-06,0.0,0 STARLINK-5029,1 53887U 22119B   23135.65448938 -.00000704  00000-0 -26144-4 0  9991,2 53887  53.2164 263.7544 0000917 101.2934 258.8161 15.08839558 36330,6917.882,95.438,540.381,539.112,0.0
53887.0,STARLINK-5029,PAYLOAD,2023-05-16 07:36:19,15.08792373,0.0001283,53.2161,260.7807,110.2174,249.8956,0.00055809,8.594e-05,0.0,0 STARLINK-5029,1 53887U 22119B   23136.31688952  .00008594  00000-0  55809-3 0  9999,2 53887  53.2161 260.7807 0001283 110.2174 249.8956 15.08792373 36019,6918.026,95.441,540.779,539.003,0.0
53887.0,STARLINK-5029,PAYLOAD,2023-05-16 12:22:29,15.08822699,0.0001059,53.2162,259.8879,107.994,252.1167,0.00015504,2.179e-05,0.0,0 STARLINK-5029,1 53887U 22119B   23136.51561385  .00002179  00000-0  15504-3 0  9992,2 53887  53.2162 259.8879 0001059 107.9940 252.1167 15.08822699 36468,6917.933,95.439,540.531,539.066,0.0
53887.0,STARLINK-5029,PAYLOAD,2023-05-17 01:05:34,15.08836595,9.12e-05,53.2159,257.5084,84.3221,275.7875,2.7698e-05,1.53e-06,0.0,0 STARLINK-5029,1 53887U 22119B   23137.04553255  .00000153  00000-0  27698-4 0  9996,2 53887  53.2159 257.5084 0000912  84.3221 275.7875 15.08836595 36124,6917.891,95.438,540.387,539.125,0.0
53887.0,STARLINK-5029,PAYLOAD,2023-05-17 15:24:02,15.08838652,0.0001029,53.2168,254.8325,83.3652,276.7458,1.6426e-05,-2.6e-07,0.0,0 STARLINK-5029,1 53887U 22119B   23137.64169376 -.00000026  00000-0  16426-4 0  9996,2 53887  53.2168 254.8325 0001029  83.3652 276.7458 15.08838652 36639,6917.885,95.438,540.461,539.038,0.0
53887.0,STARLINK-5029,PAYLOAD,2023-05-18 12:04:03,15.08837699,0.0001176,53.2172,250.9673,82.639,277.4735,3.6557e-05,2.94e-06,0.0,0 STARLINK-5029,1 53887U 22119B   23138.50281437  .00000294  00000-0  36557-4 0  9998,2 53887  53.2172 250.9673 0001176  82.6390 277.4735 15.08837699 36345,6917.887,95.438,540.566,538.939,0.0
53887.0,STARLINK-5029,PAYLOAD,2023-05-18 15:14:49,15.08839243,0.000119,53.2168,250.3723,82.8738,277.239,4.7254e-05,4.64e-06,0.0,0 STARLINK-5029,1 53887U 22119B   23138.63529302  .00000464  00000-0  47254-4 0  9993,2 53887  53.2168 250.3723 0001190  82.8738 277.2390 15.08839243 36784,6917.883,95.438,540.571,538.924,0.0
53887.0,STARLINK-5029,PAYLOAD,2023-05-19 07:08:41,15.08825804,0.0001061,53.2156,247.3971,87.1651,272.9463,0.00016979,2.414e-05,0.0,0 STARLINK-5029,1 53887U 22119B   23139.29769709  .00002414  00000-0  16979-3 0  9999,2 53887  53.2156 247.3971 0001061  87.1651 272.9463 15.08825804 36467,6917.924,95.438,540.523,539.055,0.0
53887.0,STARLINK-5029,PAYLOAD,2023-05-19 11:54:50,15.08828984,9.85e-05,53.2153,246.505,86.3879,273.7225,0.00014541,2.027e-05,0.0,0 STARLINK-5029,1 53887U 22119B   23139.49641676  .00002027  00000-0  14541-3 0  9996,2 53887  53.2153 246.5050 0000985  86.3879 273.7225 15.08828984 36917,6917.914,95.438,540.46,539.098,0.0
53887.0,STARLINK-5029,PAYLOAD,2023-05-20 00:37:55,15.08843001,9.98e-05,53.2154,244.126,86.3968,273.7138,-2.8894e-06,-3.34e-06,0.0,0 STARLINK-5029,1 53887U 22119B   23140.02633170 -.00000334  00000-0 -28894-5 0  9996,2 53887  53.2154 244.1260 0000998  86.3968 273.7138 15.08843001 36570,6917.871,95.437,540.427,539.046,0.0
53887.0,STARLINK-5029,PAYLOAD,2023-05-20 10:10:12,15.08874399,0.0001203,53.215,242.3423,72.7207,287.3916,-0.00029851,-5.04e-05,0.0,0 STARLINK-5029,1 53887U 22119B   23140.42376054 -.00005040  00000-0 -29851-3 0  9996,2 53887  53.2150 242.3423 0001203  72.7207 287.3916 15.08874399 36638,6917.775,95.435,540.472,538.808,0.0
53887.0,STARLINK-5029,PAYLOAD,2023-05-20 16:31:44,15.08859258,0.0001264,53.2155,241.1512,98.6969,261.4166,0.00011055,1.473e-05,0.0,0 STARLINK-5029,1 53887U 22119B   23140.68871489  .00001473  00000-0  11055-3 0  9997,2 53887  53.2155 241.1512 0001264  98.6969 261.4166 15.08859258 37096,6917.822,95.436,540.561,538.812,0.0
53887.0,STARLINK-5029,PAYLOAD,2023-05-21 06:50:14,15.08833714,8.7e-05,53.2155,238.4773,73.9871,286.1217,-1.5634e-05,-5.36e-06,0.0,0 STARLINK-5029,1 53887U 22119B   23141.28489417 -.00000536  00000-0 -15634-4 0  9999,2 53887  53.2155 238.4773 0000870  73.9871 286.1217 15.08833714 36767,6917.9,95.438,540.366,539.163,0.0
53887.0,STARLINK-5029,PAYLOAD,2023-05-21 11:36:24,15.08833832,9.8e-05,53.2154,237.5847,83.5978,276.5126,-2.145e-05,-6.29e-06,0.0,0 STARLINK-5029,1 53887U 22119B   23141.48361479 -.00000629  00000-0 -21450-4 0  9994,2 53887  53.2154 237.5847 0000980  83.5978 276.5126 15.08833832 37219,6917.899,95.438,540.442,539.086,0.0
53887.0,STARLINK-5029,PAYLOAD,2023-05-22 09:51:48,15.08838527,0.000104,53.2156,233.4211,90.1058,270.0053,-6.3917e-05,-1.305e-05,0.0,0 STARLINK-5029,1 53887U 22119B   23142.41097558 -.00001305  00000-0 -63917-4 0  9998,2 53887  53.2156 233.4211 0001040  90.1058 270.0053 15.08838527 36934,6917.885,95.438,540.469,539.03,0.0
